[{"OBJECT_NAME":"CYGFM07","OBJECT_ID":"2016-078G","EPOCH":"2026-03-09T16:10:44.961600","MEAN_MOTION":15.54825298,"ECCENTRICITY":0.00063305,"INCLINATION":34.9448,"RA_OF_ASC_NODE":169.4706,"ARG_OF_PERICENTER":323.2868,"MEAN_ANOMALY":36.7422,"EPHEMERIS_TYPE":0,"CLASSIFICATION_TYPE":"U","NORAD_CAT_ID":41890,"ELEMENT_SET_NO":999,"REV_AT_EPOCH":51347,"BSTAR":0.00044090518,"MEAN_MOTION_DOT":0.00030437,"MEAN_MOTION_DDOT":0},{"OBJECT_NAME":"OBJECT E","OBJECT_ID":"2021-091E","EPOCH":"2026-03-09T22:43:30.874368","MEAN_MOTION":15.58552335,"ECCENTRICITY":0.00052438,"INCLINATION":97.3949,"RA_OF_ASC_NODE":285.5924,"ARG_OF_PERICENTER":328.2739,"MEAN_ANOMALY":31.82,"EPHEMERIS_TYPE":0,"CLASSIFICATION_TYPE":"U","NORAD_CAT_ID":49319,"ELEMENT_SET_NO":999,"REV_AT_EPOCH":24586,"BSTAR":0.0004489926,"MEAN_MOTION_DOT":0.00034337,"MEAN_MOTION_DDOT":0}]
